{
  "norad_id": 51105,
  "name": "STARLINK-3350",
  "history": [
    {
      "epoch": "2026-03-28T15:48:07.456032Z",
      "apogee_km": 540.6217135841998,
      "perigee_km": 538.8363507186223,
      "latitude_deg": 2.0261740714365157e-06,
      "longitude_deg": 140.859830873661,
      "height_km": 540.521552652469,
      "semi_major_axis_km": 6917.866032151411,
      "eccentricity": 0.00012904,
      "inclination_deg": 53.2167,
      "raan_deg": 203.9666,
      "arg_perigee_deg": 83.3599,
      "mean_anomaly_deg": 276.754,
      "mean_motion_rev_day": 15.08844697
    }
  ]
}